NORAD_CAT_ID,OBJECT_NAME,OBJECT_TYPE,EPOCH,MEAN_MOTION,ECCENTRICITY,INCLINATION,RA_OF_ASC_NODE,ARG_OF_PERICENTER,MEAN_ANOMALY,BSTAR,MEAN_MOTION_DOT,MEAN_MOTION_DDOT,TLE_LINE0,TLE_LINE1,TLE_LINE2,SEMIMAJOR_AXIS,PERIOD,APOGEE,PERIGEE,DECAYED
54163.0,STARLINK-5161,PAYLOAD,2023-05-08 19:36:32,15.08846588,9.36e-05,53.2171,334.5024,101.0267,259.0831,8.983e-05,1.142e-05,0.0,0 STARLINK-5161,1 54163U 22141G   23128.81704103  .00001142  00000-0  89830-4 0  9999,2 54163  53.2171 334.5024 0000936 101.0267 259.0831 15.08846588 29479,6917.86,95.437,540.373,539.078,0.0
54163.0,STARLINK-5161,PAYLOAD,2023-05-08 21:11:55,15.08847167,8.61e-05,53.2154,334.2025,113.6394,246.4689,0.00012125,1.643e-05,0.0,0 STARLINK-5161,1 54163U 22141G   23128.88328161  .00001643  00000-0  12125-3 0  9990,2 54163  53.2154 334.2025 0000861 113.6394 246.4689 15.08847167 29481,6917.858,95.437,540.319,539.128,0.0
54163.0,STARLINK-5161,PAYLOAD,2023-05-09 21:02:43,15.08839878,9.37e-05,53.2167,329.7444,97.719,262.3908,0.0003028,4.535e-05,0.0,0 STARLINK-5161,1 54163U 22141G   23129.87688917  .00004535  00000-0  30280-3 0  9993,2 54163  53.2167 329.7444 0000937  97.7190 262.3908 15.08839878 29637,6917.881,95.438,540.394,539.098,0.0
54163.0,STARLINK-5161,PAYLOAD,2023-05-10 19:18:07,15.08843569,9.92e-05,53.2167,325.5812,90.6805,269.4301,0.00018501,2.658e-05,0.0,0 STARLINK-5161,1 54163U 22141G   23130.80424926  .00002658  00000-0  18501-3 0  9992,2 54163  53.2167 325.5812 0000992  90.6805 269.4301 15.08843569 29778,6917.869,95.437,540.421,539.048,0.0
54163.0,STARLINK-5161,PAYLOAD,2023-05-11 19:08:54,15.08845566,9.11e-05,53.2165,321.1213,84.3989,275.7107,0.00015145,2.124e-05,0.0,0 STARLINK-5161,1 54163U 22141G   23131.79784994  .00002124  00000-0  15145-3 0  9994,2 54163  53.2165 321.1213 0000911  84.3989 275.7107 15.08845566 29927,6917.863,95.437,540.359,539.098,0.0
54163.0,STARLINK-5161,PAYLOAD,2023-05-12 18:59:42,15.0881509,0.0001237,53.2173,316.6575,110.9533,249.1591,0.00084286,0.00013142,0.0,0 STARLINK-5161,1 54163U 22141G   23132.79146677  .00013142  00000-0  84286-3 0  9999,2 54163  53.2173 316.6575 0001237 110.9533 249.1591 15.08815090 30078,6917.957,95.439,540.677,538.966,0.0
54163.0,STARLINK-5161,PAYLOAD,2023-05-13 18:50:28,15.0884301,0.0001066,53.2177,312.203,91.5898,268.5217,0.000136,1.877e-05,0.0,0 STARLINK-5161,1 54163U 22141G   23133.78505318  .00001877  00000-0  13600-3 0  9994,2 54163  53.2177 312.2030 0001066  91.5898 268.5217 15.08843010 30228,6917.871,95.437,540.474,538.999,0.0
54163.0,STARLINK-5161,PAYLOAD,2023-05-13 20:25:51,15.08843965,0.0001019,53.218,311.9046,91.8519,268.259,0.00012431,1.691e-05,0.0,0 STARLINK-5161,1 54163U 22141G   23133.85129082  .00001691  00000-0  12431-3 0  9997,2 54163  53.2180 311.9046 0001019  91.8519 268.2590 15.08843965 30237,6917.868,95.437,540.438,539.028,0.0
54163.0,STARLINK-5161,PAYLOAD,2023-05-14 04:22:47,15.08830904,9.75e-05,53.2176,310.4169,87.7383,272.372,0.00017946,2.569e-05,0.0,0 STARLINK-5161,1 54163U 22141G   23134.18249967  .00002569  00000-0  17946-3 0  9990,2 54163  53.2176 310.4169 0000975  87.7383 272.3720 15.08830904 30280,6917.908,95.438,540.448,539.099,0.0
54163.0,STARLINK-5161,PAYLOAD,2023-05-14 20:16:38,15.08843171,9.84e-05,53.2179,307.4436,78.0126,282.0976,7.2959e-05,8.74e-06,0.0,0 STARLINK-5161,1 54163U 22141G   23134.84489386  .00000874  00000-0  72959-4 0  9997,2 54163  53.2179 307.4436 0000984  78.0126 282.0976 15.08843171 30386,6917.871,95.437,540.416,539.055,0.0
54163.0,STARLINK-5161,PAYLOAD,2023-05-15 12:10:30,15.08836616,0.000102,53.218,304.4697,90.2016,269.9094,-3.2577e-06,-3.4e-06,0.0,0 STARLINK-5161,1 54163U 22141G   23135.50730130 -.00000340  00000-0 -32577-5 0  9990,2 54163  53.2180 304.4697 0001020  90.2016 269.9094 15.08836616 30482,6917.891,95.438,540.461,539.05,0.0
54163.0,STARLINK-5161,PAYLOAD,2023-05-15 16:56:40,15.08838451,0.0001003,53.2181,303.5775,88.4052,271.7055,-4.9763e-06,-3.67e-06,0.0,0 STARLINK-5161,1 54163U 22141G   23135.70602017 -.00000367  00000-0 -49763-5 0  9998,2 54163  53.2181 303.5775 0001003  88.4052 271.7055 15.08838451 30511,6917.885,95.438,540.444,539.056,0.0
54163.0,STARLINK-5161,PAYLOAD,2023-05-17 03:55:09,15.08836053,0.0001069,53.2186,297.0348,86.0556,274.0559,8.7067e-05,1.098e-05,0.0,0 STARLINK-5161,1 54163U 22141G   23137.16330214  .00001098  00000-0  87067-4 0  9995,2 54163  53.2186 297.0348 0001069  86.0556 274.0559 15.08836053 30739,6917.892,95.438,540.497,539.018,0.0
54163.0,STARLINK-5161,PAYLOAD,2023-05-17 18:13:37,15.08843597,9.78e-05,53.2178,294.3588,80.2911,279.8191,0.00011486,1.541e-05,0.0,0 STARLINK-5161,1 54163U 22141G   23137.75945643  .00001541  00000-0  11486-3 0  9992,2 54163  53.2178 294.3588 0000978  80.2911 279.8191 15.08843597 30821,6917.869,95.437,540.411,539.058,0.0
54163.0,STARLINK-5161,PAYLOAD,2023-05-18 10:07:28,15.08834876,0.0001057,53.2175,291.3883,73.0275,287.0833,0.00011462,1.537e-05,0.0,0 STARLINK-5161,1 54163U 22141G   23138.42185915  .00001537  00000-0  11462-3 0  9994,2 54163  53.2175 291.3883 0001057  73.0275 287.0833 15.08834876 30920,6917.896,95.438,540.492,539.03,0.0
54163.0,STARLINK-5161,PAYLOAD,2023-05-18 21:15:10,15.08843895,0.0001124,53.2173,289.3064,72.3048,287.8067,5.3015e-05,5.56e-06,0.0,0 STARLINK-5161,1 54163U 22141G   23138.88553806  .00000556  00000-0  53015-4 0  9993,2 54163  53.2173 289.3064 0001124  72.3048 287.8067 15.08843895 30996,6917.868,95.437,540.511,538.956,0.0
54163.0,STARLINK-5161,PAYLOAD,2023-05-19 16:19:48,15.08843276,0.0001056,53.2162,285.7358,78.2016,281.9095,5.3138e-05,5.58e-06,0.0,0 STARLINK-5161,1 54163U 22141G   23139.68041696  .00000558  00000-0  53138-4 0  9999,2 54163  53.2162 285.7358 0001056  78.2016 281.9095 15.08843276 31118,6917.87,95.437,540.466,539.005,0.0
54163.0,STARLINK-5161,PAYLOAD,2023-05-20 19:21:20,15.08854457,0.0001003,53.2162,280.6781,90.4055,269.7052,0.00014413,2.008e-05,0.0,0 STARLINK-5161,1 54163U 22141G   23140.80648600  .00002008  00000-0  14413-3 0  9997,2 54163  53.2162 280.6781 0001003  90.4055 269.7052 15.08854457 31281,6917.836,95.437,540.395,539.007,0.0
54163.0,STARLINK-5161,PAYLOAD,2023-05-21 16:01:23,15.08829114,0.0001043,53.217,276.8144,102.9188,257.1921,-2.4346e-05,-6.75e-06,0.0,0 STARLINK-5161,1 54163U 22141G   23141.66763112 -.00000675  00000-0 -24346-4 0  9995,2 54163  53.2170 276.8144 0001043 102.9188 257.1921 15.08829114 31413,6917.914,95.438,540.5,539.057,0.0
54163.0,STARLINK-5161,PAYLOAD,2023-05-22 01:33:41,15.08835662,9.2e-05,53.218,275.0325,100.7759,259.3336,3.7262e-05,3.05e-06,0.0,0 STARLINK-5161,1 54163U 22141G   23142.06506834  .00000305  00000-0  37262-4 0  9995,2 54163  53.2180 275.0325 0000920 100.7759 259.3336 15.08835662 31474,6917.894,95.438,540.395,539.122,0.0
54163.0,STARLINK-5161,PAYLOAD,2023-05-22 07:55:14,15.0884254,8.36e-05,53.2165,273.8397,96.509,263.5997,-1.3203e-05,-4.98e-06,0.0,0 STARLINK-5161,1 54163U 22141G   23142.33002376 -.00000498  00000-0 -13203-4 0  9991,2 54163  53.2165 273.8397 0000836  96.5090 263.5997 15.08842540 31516,6917.873,95.437,540.316,539.159,0.0
54163.0,STARLINK-5161,PAYLOAD,2023-05-22 15:52:09,15.0885272,8.79e-05,53.2164,272.3547,107.2616,252.8472,0.0001678,2.385e-05,0.0,0 STARLINK-5161,1 54163U 22141G   23142.66121754  .00002385  00000-0  16780-3 0  9996,2 54163  53.2164 272.3547 0000879 107.2616 252.8472 15.08852720 31562,6917.842,95.437,540.315,539.098,0.0
54163.0,STARLINK-5161,PAYLOAD,2023-05-23 14:07:33,15.08840176,0.0001151,53.2177,268.194,124.4438,235.6663,0.00012722,1.737e-05,0.0,0 STARLINK-5161,1 54163U 22141G   23143.58858666  .00001737  00000-0  12722-3 0  9999,2 54163  53.2177 268.1940 0001151 124.4438 235.6663 15.08840176 31702,6917.88,95.438,540.541,538.949,0.0
54163.0,STARLINK-5161,PAYLOAD,2023-05-24 15:33:43,15.08843743,8.9e-05,53.2169,263.4337,102.6702,257.439,9.6315e-05,1.246e-05,0.0,0 STARLINK-5161,1 54163U 22141G   23144.64842545  .00001246  00000-0  96315-4 0  9992,2 54163  53.2169 263.4337 0000890 102.6702 257.4390 15.08843743 31861,6917.869,95.437,540.35,539.118,0.0
54163.0,STARLINK-5161,PAYLOAD,2023-05-25 13:49:07,15.08846546,8.42e-05,53.2166,259.271,100.1583,259.9504,0.00020668,3.004e-05,0.0,0 STARLINK-5161,1 54163U 22141G   23145.57578445  .00003004  00000-0  20668-3 0  9991,2 54163  53.2166 259.2710 0000842 100.1583 259.9504 15.08846546 32008,6917.86,95.437,540.308,539.143,0.0
54163.0,STARLINK-5161,PAYLOAD,2023-05-25 15:24:30,15.08847967,7.64e-05,53.217,258.9728,100.7879,259.3199,0.00021926,3.204e-05,0.0,0 STARLINK-5161,1 54163U 22141G   23145.64202316  .00003204  00000-0  21926-3 0  9990,2 54163  53.2170 258.9728 0000764 100.7879 259.3199 15.08847967 32018,6917.856,95.437,540.25,539.193,0.0
54163.0,STARLINK-5161,PAYLOAD,2023-05-26 13:39:55,15.08842415,9.3e-05,53.2169,254.8106,72.1919,287.9175,0.0001195,1.615e-05,0.0,0 STARLINK-5161,1 54163U 22141G   23146.56938756  .00001615  00000-0  11950-3 0  9996,2 54163  53.2169 254.8106 0000930  72.1919 287.9175 15.08842415 32152,6917.873,95.437,540.381,539.095,0.0
54163.0,STARLINK-5161,PAYLOAD,2023-05-26 16:50:41,15.08844557,8.74e-05,53.2169,254.2147,88.6533,271.4559,0.00011892,1.606e-05,0.0,0 STARLINK-5161,1 54163U 22141G   23146.70186543  .00001606  00000-0  11892-3 0  9996,2 54163  53.2169 254.2147 0000874  88.6533 271.4559 15.08844557 32177,6917.866,95.437,540.336,539.127,0.0
54163.0,STARLINK-5161,PAYLOAD,2023-05-26 21:36:50,15.08835467,8.9e-05,53.2166,253.3251,59.6908,300.4172,-3.3749e-05,-8.25e-06,0.0,0 STARLINK-5161,1 54163U 22141G   23146.90058991 -.00000825  00000-0 -33749-4 0  9993,2 54163  53.2166 253.3251 0000890  59.6908 300.4172 15.08835467 32200,6917.894,95.438,540.375,539.144,0.0
54163.0,STARLINK-5161,PAYLOAD,2023-05-27 00:47:37,15.08834865,7.07e-05,53.217,252.7285,97.8605,262.2467,-1.74e-05,-5.64e-06,0.0,0 STARLINK-5161,1 54163U 22141G   23147.03306988 -.00000564  00000-0 -17400-4 0  9996,2 54163  53.2170 252.7285 0000707  97.8605 262.2467 15.08834865 32225,6917.896,95.438,540.25,539.272,0.0
